OBJECT_NAME,OBJECT_ID,EPOCH,MEAN_MOTION,ECCENTRICITY,INCLINATION,RA_OF_ASC_NODE,ARG_OF_PERICENTER,MEAN_ANOMALY,EPHEMERIS_TYPE,CLASSIFICATION_TYPE,NORAD_CAT_ID,ELEMENT_SET_NO,REV_AT_EPOCH,BSTAR,MEAN_MOTION_DOT,MEAN_MOTION_DDOT
BEIDOU-3 M28 (C50),2023-207A,2026-06-09T18:45:51.630912,1.86229705,.00034537,55.7464,62.5530,344.4551,15.5580,0,U,58654,999,1670,0,-.5E-6,0
BEIDOU-3 M26 (C48),2023-207B,2026-06-10T02:47:28.382208,1.86229715,.0003354,55.7488,62.5282,318.7401,41.2579,0,U,58655,999,1669,0,-.52E-6,0
GSAT0225 (GALILEO 29),2024-079A,2026-06-09T11:34:01.814016,1.70474016,.00017346,55.1155,101.2960,292.0981,244.7042,0,U,59598,999,1318,0,.21E-6,0
GSAT0227 (GALILEO 30),2024-079C,2026-06-08T04:53:54.670272,1.70474042,.00019208,55.1096,101.3297,44.5115,315.4782,0,U,59600,999,1321,0,.25E-6,0
GSAT0232 (GALILEO 32),2024-167A,2026-06-09T14:56:34.750752,1.70474371,.00060197,55.1871,221.5218,224.7960,141.3462,0,U,61182,999,1075,0,.48E-6,0
GSAT0226 (GALILEO 31),2024-167B,2026-06-10T01:04:19.023168,1.70474300,.00027948,55.1858,221.5174,222.8893,133.6064,0,U,61183,999,1072,0,.5E-6,0
BEIDOU-3 M25 (C47),2024-168B,2026-06-09T22:21:42.450048,1.86230012,.0003022,54.4805,302.4952,303.1226,50.4730,0,U,61186,999,1164,0,-.62E-6,0
BEIDOU-3 M27 (C49),2024-168C,2026-06-08T15:54:08.637408,1.86230165,.00017072,54.4771,302.5224,47.9603,309.7688,0,U,61187,999,909,0,-.58E-6,0
GPS BIII-7  (PRN 01),2024-242A,2026-06-09T20:48:16.099200,2.00571348,.00173168,54.8503,334.4786,3.9741,359.2011,0,U,62339,999,1111,0,-.62E-6,0
QZS-6 (QZSS/PRN 200),2025-023A,2026-06-10T10:18:01.221120,1.00272893,.0001859,0.0360,59.4029,27.8201,56.5870,0,U,62876,999,488,0,-.216E-5,0
COSMOS 2584 (704K),2025-042A,2026-06-08T05:23:06.412992,2.13103875,.00058283,65.0792,73.1067,228.4476,131.5246,0,U,63130,999,985,0,-.15E-6,0
GPS BIII-8  (PRN 21),2025-116A,2026-06-04T08:47:30.944832,2.00577081,.00084526,55.2259,31.6468,337.8257,196.1658,0,U,64202,999,761,0,-.73E-6,0
COSMOS 2596 (708K),2025-206B,2026-06-09T22:43:40.184832,2.13100671,.0011083,64.6381,315.2379,312.6704,45.2644,0,U,65590,999,575,0,-.37E-6,0
GSAT0233 (GALILEO 33),2025-302A,2026-06-06T15:54:07.553088,1.70474269,.0001324,54.3305,102.4316,236.8649,300.4651,0,U,67160,999,294,0,.23E-6,0
GSAT0234 (GALILEO 34),2025-302C,2026-06-08T17:25:19.291008,1.70474133,.00031255,54.3315,102.3718,304.5628,239.1894,0,U,67162,999,303,0,.25E-6,0
GPS BIII-9  (PRN 20),2026-017A,2026-06-08T05:21:26.887104,2.00571164,.0021774,55.0831,89.1152,257.0982,102.6538,0,U,67588,999,43143,0,.5E-7,0
GPS BIII-10 (PRN 13),2026-087A,2026-06-07T10:32:17.680992,2.00569573,.00209312,54.9638,208.1735,107.2972,251.8874,0,U,68791,999,63,0,.57E-6,0
